NORAD_CAT_ID,OBJECT_NAME,OBJECT_TYPE,EPOCH,MEAN_MOTION,ECCENTRICITY,INCLINATION,RA_OF_ASC_NODE,ARG_OF_PERICENTER,MEAN_ANOMALY,BSTAR,MEAN_MOTION_DOT,MEAN_MOTION_DDOT,TLE_LINE0,TLE_LINE1,TLE_LINE2,SEMIMAJOR_AXIS,PERIOD,APOGEE,PERIGEE,DECAYED
49449.0,STARLINK-3137,PAYLOAD,2023-11-20 11:51:50,15.08844286,0.0001426,53.2198,30.9048,93.215,266.9006,6.2494e-05,7.07e-06,0.0,0 STARLINK-3137,1 49449U 21104AT  23324.49433490  .00000707  00000-0  62494-4 0  9991,2 49449  53.2198  30.9048 0001426  93.2150 266.9006 15.08844286111937,6917.867,95.437,540.719,538.746,0.0
49449.0,STARLINK-3137,PAYLOAD,2023-11-20 21:24:09,15.08845378,0.0001368,53.2196,29.12,88.5082,271.6067,3.2328e-05,2.27e-06,0.0,0 STARLINK-3137,1 49449U 21104AT  23324.89177343  .00000227  00000-0  32328-4 0  9997,2 49449  53.2196  29.1200 0001368  88.5082 271.6067 15.08845378111990,6917.864,95.437,540.675,538.783,0.0
49449.0,STARLINK-3137,PAYLOAD,2023-11-21 10:07:14,15.08842166,0.0001377,53.2191,26.7414,90.268,269.847,4.538e-07,-2.81e-06,0.0,0 STARLINK-3137,1 49449U 21104AT  23325.42169750 -.00000281  00000-0  45380-6 0  9995,2 49449  53.2191  26.7414 0001377  90.2680 269.8470 15.08842166113158,6917.874,95.437,540.691,538.786,0.0
49449.0,STARLINK-3137,PAYLOAD,2023-11-21 13:18:00,15.08847546,0.0001507,53.2196,26.1458,80.6251,279.4912,3.1591e-05,2.15e-06,0.0,0 STARLINK-3137,1 49449U 21104AT  23325.55417361  .00000215  00000-0  31591-4 0  9996,2 49449  53.2196  26.1458 0001507  80.6251 279.4912 15.08847546112094,6917.857,95.437,540.765,538.68,0.0
49449.0,STARLINK-3137,PAYLOAD,2023-11-22 11:33:24,15.08851509,0.000171,53.2195,21.9827,71.7019,288.4159,0.00011298,1.511e-05,0.0,0 STARLINK-3137,1 49449U 21104AT  23326.48152970  .00001511  00000-0  11298-3 0  9992,2 49449  53.2195  21.9827 0001710  71.7019 288.4159 15.08851509113318,6917.845,95.437,540.893,538.527,0.0
49449.0,STARLINK-3137,PAYLOAD,2023-11-23 03:27:16,15.08839269,0.0001561,53.2201,19.0105,88.9502,271.1669,7.4569e-05,8.99e-06,0.0,0 STARLINK-3137,1 49449U 21104AT  23327.14393781  .00000899  00000-0  74569-4 0  9992,2 49449  53.2201  19.0105 0001561  88.9502 271.1669 15.08839269113419,6917.883,95.438,540.828,538.668,0.0
49449.0,STARLINK-3137,PAYLOAD,2023-11-23 09:48:48,15.08841569,0.0001826,53.2196,17.8208,74.2253,285.8941,7.9603e-05,9.79e-06,0.0,0 STARLINK-3137,1 49449U 21104AT  23327.40889702  .00000979  00000-0  79603-4 0  9997,2 49449  53.2196  17.8208 0001826  74.2253 285.8941 15.08841569112372,6917.876,95.437,541.004,538.477,0.0
49449.0,STARLINK-3137,PAYLOAD,2023-11-24 03:18:04,15.08827918,0.0001717,53.2186,14.5524,80.95,279.1686,2.0423e-05,3.7e-07,0.0,0 STARLINK-3137,1 49449U 21104AT  23328.13754698  .00000037  00000-0  20423-4 0  9994,2 49449  53.2186  14.5524 0001717  80.9500 279.1686 15.08827918113560,6917.917,95.438,540.97,538.595,0.0
49449.0,STARLINK-3137,PAYLOAD,2023-11-24 12:50:22,15.08840768,0.0001659,53.2195,12.7627,95.1658,264.9524,-9.2219e-05,-1.755e-05,0.0,0 STARLINK-3137,1 49449U 21104AT  23328.53498492 -.00001755  00000-0 -92219-4 0  9997,2 49449  53.2195  12.7627 0001659  95.1658 264.9524 15.08840768112549,6917.878,95.438,540.891,538.595,0.0
49449.0,STARLINK-3137,PAYLOAD,2023-11-25 09:30:23,15.08851262,0.0001804,53.219,8.8979,93.3119,266.808,0.000302,4.523e-05,0.0,0 STARLINK-3137,1 49449U 21104AT  23329.39610112  .00004523  00000-0  30200-3 0  9992,2 49449  53.2190   8.8979 0001804  93.3119 266.8080 15.08851262112677,6917.846,95.437,540.959,538.463,0.0
49449.0,STARLINK-3137,PAYLOAD,2023-11-26 02:59:37,15.08846781,0.0001726,53.2171,5.6271,89.9088,270.2102,0.00025048,3.701e-05,0.0,0 STARLINK-3137,1 49449U 21104AT  23330.12474111  .00003701  00000-0  25048-3 0  9993,2 49449  53.2171   5.6271 0001726  89.9088 270.2102 15.08846781113861,6917.86,95.437,540.919,538.531,0.0
49449.0,STARLINK-3137,PAYLOAD,2023-11-26 09:21:09,15.08844956,0.0002044,53.2204,4.4446,91.0227,269.0999,0.00025731,3.81e-05,0.0,0 STARLINK-3137,1 49449U 21104AT  23330.38969511  .00003810  00000-0  25731-3 0  9994,2 49449  53.2204   4.4446 0002044  91.0227 269.0999 15.08844956112829,6917.865,95.437,541.144,538.316,0.0
49449.0,STARLINK-3137,PAYLOAD,2023-11-27 02:50:25,15.0881702,0.0001614,53.2196,1.1744,83.5768,276.5408,-0.00048654,-8.018e-05,0.0,0 STARLINK-3137,1 49449U 21104AT  23331.11835329 -.00008018  00000-0 -48654-3 0  9991,2 49449  53.2196   1.1744 0001614  83.5768 276.5408 15.08817020114015,6917.951,95.439,540.932,538.699,0.0
49449.0,STARLINK-3137,PAYLOAD,2023-11-27 09:11:59,15.0882039,0.0001856,53.2195,359.9832,93.7011,266.4193,-0.00022759,-3.906e-05,0.0,0 STARLINK-3137,1 49449U 21104AT  23331.38332632 -.00003906  00000-0 -22759-3 0  9998,2 49449  53.2195 359.9832 0001856  93.7011 266.4193 15.08820390112974,6917.94,95.439,541.089,538.521,0.0
49449.0,STARLINK-3137,PAYLOAD,2023-11-28 10:38:06,15.08859561,0.0001874,53.2203,355.2178,89.2794,270.8413,0.00011996,1.623e-05,0.0,0 STARLINK-3137,1 49449U 21104AT  23332.44313404  .00001623  00000-0  11996-3 0  9995,2 49449  53.2203 355.2178 0001874  89.2794 270.8413 15.08859561114219,6917.821,95.436,540.982,538.389,0.0
49449.0,STARLINK-3137,PAYLOAD,2023-11-29 00:56:36,15.08825075,0.0002026,53.2187,352.547,77.4992,282.6227,0.00027605,4.106e-05,0.0,0 STARLINK-3137,1 49449U 21104AT  23333.03931497  .00004106  00000-0  27605-3 0  9992,2 49449  53.2187 352.5470 0002026  77.4992 282.6227 15.08825075114301,6917.926,95.438,541.193,538.389,0.0
49449.0,STARLINK-3137,PAYLOAD,2023-11-29 08:53:32,15.08831187,0.0001962,53.2198,351.0583,69.3154,290.8048,0.00031792,4.774e-05,0.0,0 STARLINK-3137,1 49449U 21104AT  23333.37051508  .00004774  00000-0  31792-3 0  9998,2 49449  53.2198 351.0583 0001962  69.3154 290.8048 15.08831187113278,6917.907,95.438,541.13,538.415,0.0
49449.0,STARLINK-3137,PAYLOAD,2023-11-30 08:44:19,15.08855425,0.0001841,53.2207,346.5947,86.2179,273.9023,1.156e-05,-1.04e-06,0.0,0 STARLINK-3137,1 49449U 21104AT  23334.36410913 -.00000104  00000-0  11560-4 0  9993,2 49449  53.2207 346.5947 0001841  86.2179 273.9023 15.08855425114506,6917.833,95.437,540.972,538.425,0.0
49449.0,STARLINK-3137,PAYLOAD,2023-12-01 05:24:20,15.08839733,0.0001999,53.2203,342.7343,77.2441,282.8774,9.4316e-05,1.213e-05,0.0,0 STARLINK-3137,1 49449U 21104AT  23335.22523838  .00001213  00000-0  94316-4 0  9991,2 49449  53.2203 342.7343 0001999  77.2441 282.8774 15.08839733114636,6917.881,95.438,541.129,538.363,0.0
49449.0,STARLINK-3137,PAYLOAD,2023-12-01 06:59:43,15.08844567,0.0002228,53.2204,342.4353,75.6455,284.4785,8.027e-05,9.9e-06,0.0,0 STARLINK-3137,1 49449U 21104AT  23335.29147622  .00000990  00000-0  80270-4 0  9996,2 49449  53.2204 342.4353 0002228  75.6455 284.4785 15.08844567113560,6917.866,95.437,541.273,538.19,0.0
49449.0,STARLINK-3137,PAYLOAD,2023-12-02 00:28:57,15.08851614,0.0002003,53.22,339.1642,83.7078,276.4142,0.00021917,3.203e-05,0.0,0 STARLINK-3137,1 49449U 21104AT  23336.02010697  .00003203  00000-0  21917-3 0  9991,2 49449  53.2200 339.1642 0002003  83.7078 276.4142 15.08851614114753,6917.845,95.437,541.096,538.324,0.0
49449.0,STARLINK-3137,PAYLOAD,2023-12-02 06:50:28,15.08874217,0.000204,53.2194,337.9716,101.7137,258.4084,0.00048962,7.52e-05,0.0,0 STARLINK-3137,1 49449U 21104AT  23336.28505653  .00007520  00000-0  48962-3 0  9995,2 49449  53.2194 337.9716 0002040 101.7137 258.4084 15.08874217114794,6917.776,95.435,541.052,538.23,0.0
49449.0,STARLINK-3137,PAYLOAD,2023-12-03 03:30:32,15.08825604,0.0002023,53.2191,334.1111,93.3753,266.7471,-0.00015804,-2.802e-05,0.0,0 STARLINK-3137,1 49449U 21104AT  23337.14620448 -.00002802  00000-0 -15804-3 0  9990,2 49449  53.2191 334.1111 0002023  93.3753 266.7471 15.08825604114923,6917.924,95.438,541.189,538.39,0.0
49449.0,STARLINK-3137,PAYLOAD,2023-12-03 05:05:55,15.08826002,0.0002229,53.2195,333.8135,113.1054,247.0174,-0.00014028,-2.519e-05,0.0,0 STARLINK-3137,1 49449U 21104AT  23337.21244428 -.00002519  00000-0 -14028-3 0  9990,2 49449  53.2195 333.8135 0002229 113.1054 247.0174 15.08826002113858,6917.923,95.438,541.33,538.246,0.0
49449.0,STARLINK-3137,PAYLOAD,2023-12-04 03:21:19,15.08838316,0.0002281,53.2184,329.6474,88.1598,271.9656,0.00018145,2.601e-05,0.0,0 STARLINK-3137,1 49449U 21104AT  23338.13980461  .00002601  00000-0  18145-3 0  9990,2 49449  53.2184 329.6474 0002281  88.1598 271.9656 15.08838316115075,6917.886,95.438,541.329,538.173,0.0
49449.0,STARLINK-3137,PAYLOAD,2023-12-04 06:32:05,15.08839846,0.0002209,53.2187,329.0521,89.8953,270.2292,0.00025872,3.832e-05,0.0,0 STARLINK-3137,1 49449U 21104AT  23338.27228506  .00003832  00000-0  25872-3 0  9992,2 49449  53.2187 329.0521 0002209  89.8953 270.2292 15.08839846114018,6917.881,95.438,541.274,538.218,0.0
49449.0,STARLINK-3137,PAYLOAD,2023-12-05 06:22:52,15.08862419,0.0002159,53.2179,324.591,76.3325,283.7907,0.00072815,0.00011327,0.0,0 STARLINK-3137,1 49449U 21104AT  23339.26588087  .00011327  00000-0  72815-3 0  9992,2 49449  53.2179 324.5910 0002159  76.3325 283.7907 15.08862419115249,6917.812,95.436,541.17,538.183,0.0
49449.0,STARLINK-3137,PAYLOAD,2023-12-06 04:38:15,15.08852919,0.0002197,53.2179,320.4272,87.5707,272.5536,4.418e-05,4.15e-06,0.0,0 STARLINK-3137,1 49449U 21104AT  23340.19323557  .00000415  00000-0  44180-4 0  9996,2 49449  53.2179 320.4272 0002197  87.5707 272.5536 15.08852919115388,6917.841,95.437,541.226,538.186,0.0
49449.0,STARLINK-3137,PAYLOAD,2023-12-06 07:49:01,15.0885413,0.0002201,53.2181,319.8321,87.3346,272.7898,8.7835e-05,1.11e-05,0.0,0 STARLINK-3137,1 49449U 21104AT  23340.32571429  .00001110  00000-0  87835-4 0  9991,2 49449  53.2181 319.8321 0002201  87.3346 272.7898 15.08854130114324,6917.837,95.437,541.225,538.18,0.0
49449.0,STARLINK-3137,PAYLOAD,2023-12-06 17:21:20,15.0883993,0.0002558,53.2192,318.0549,107.4028,252.7244,-0.00014427,-2.584e-05,0.0,0 STARLINK-3137,1 49449U 21104AT  23340.72315616 -.00002584  00000-0 -14427-3 0  9993,2 49449  53.2192 318.0549 0002558 107.4028 252.7244 15.08839930115465,6917.881,95.438,541.515,537.976,0.0
